{
    "links": {
        "self": "http://www.neowsapp.com/rest/v1/neo/3596040?api_key=iIulBulltgU6a56xZRHN4H3l9WmuAYTsLGpBGhQ2"
    },
    "id": "3596040",
    "neo_reference_id": "3596040",
    "name": "(2012 BG14)",
    "designation": "2012 BG14",
    "nasa_jpl_url": "http://ssd.jpl.nasa.gov/sbdb.cgi?sstr=3596040",
    "absolute_magnitude_h": 25.0,
    "estimated_diameter": {
        "kilometers": {
            "estimated_diameter_min": 0.02658,
            "estimated_diameter_max": 0.0594346868
        },
        "meters": {
            "estimated_diameter_min": 26.58,
            "estimated_diameter_max": 59.4346868419
        },
        "miles": {
            "estimated_diameter_min": 0.0165160412,
            "estimated_diameter_max": 0.0369309908
        },
        "feet": {
            "estimated_diameter_min": 87.2047272,
            "estimated_diameter_max": 194.9956979785
        }
    },
    "is_potentially_hazardous_asteroid": false,
    "close_approach_data": [
        {
            "close_approach_date": "1930-12-24",
            "close_approach_date_full": "1930-Dec-24 07:48",
            "epoch_date_close_approach": -1231431120000,
            "relative_velocity": {
                "kilometers_per_second": "10.1317849192",
                "kilometers_per_hour": "36474.4257089634",
                "miles_per_hour": "22663.7896856612"
            },
            "miss_distance": {
                "astronomical": "0.2317433323",
                "lunar": "90.1481562647",
                "kilometers": "34668308.898782201",
                "miles": "21541888.2390723338"
            },
            "orbiting_body": "Earth"
        },
        {
            "close_approach_date": "2012-01-15",
            "close_approach_date_full": "2012-Jan-15 13:07",
            "epoch_date_close_approach": 1326632820000,
            "relative_velocity": {
                "kilometers_per_second": "15.26777115",
                "kilometers_per_hour": "54963.9761401123",
                "miles_per_hour": "34152.4772855048"
            },
            "miss_distance": {
                "astronomical": "0.0317977064",
                "lunar": "12.3693077896",
                "kilometers": "4756869.148325368",
                "miles": "2955781.4273633584"
            },
            "orbiting_body": "Earth"
        }
    ],
    "orbital_data": {
        "orbit_id": "9",
        "orbit_determination_date": "2017-04-06 08:51:20",
        "first_observation_date": "2012-01-20",
        "last_observation_date": "2012-01-28",
        "data_arc_in_days": 8,
        "observations_used": 29,
        "orbit_uncertainty": "8",
        "minimum_orbit_intersection": ".0307057",
        "jupiter_tisserand_invariant": "4.509",
        "epoch_osculation": "2455953.5",
        "eccentricity": ".4874397120246103",
        "semi_major_axis": "1.43767860931477",
        "inclination": "14.21889160619462",
        "ascending_node_longitude": "121.2294101587325",
        "orbital_period": "629.6383084414382",
        "perihelion_distance": ".7368969620064364",
        "perihelion_argument": "275.2100427508171",
        "aphelion_distance": "2.138460256623104",
        "perihelion_time": "2455890.562655268704",
        "mean_anomaly": "35.98485638421713",
        "mean_motion": ".57175682478901",
        "equinox": "J2000",
        "orbit_class": {
            "orbit_class_type": "APO",
            "orbit_class_description": "Near-Earth asteroid orbits which cross the Earth’s orbit similar to that of 1862 Apollo",
            "orbit_class_range": "a (semi-major axis) > 1.0 AU; q (perihelion) < 1.017 AU"
        }
    },
    "is_sentry_object": false
}